#dP2021  5 13  0  0  0.00000000      96 __u+U ITR00 FIT  IAC
## 2157 345600.00000000   900.00000000 59347 0.0000000000000
+  116   C06C07C08C09C10C11C12C13C14C16C19C20C21C22C23C24C25
+        C26C27C28C29C30C32C33C34C35C36C37C38C39C40C41C42C43
+        C44C45C46E01E02E03E04E05E07E08E09E11E12E13E14E15E18
+        E19E21E24E25E26E27E30E31E33E36G01G02G03G04G05G06G07
+        G08G09G10G12G13G14G15G16G17G18G19G20G21G22G23G24G25
+        G26G27G28G29G30G31G32J01J02J03R01R02R03R04R05R07R08
+        R09R11R12R13R14R15R16R17R18R19R20R21R22R24  0  0  0
++         6  7  8  8  8  9  8  9  8  9  8  7  7  7  7  8  8
++         7  7  8  7  7  6  8  8  7  7  7  8  8 10  8  7  9
++         6  7  7  7  8  8  6  7  7  7  8  8  8  9  7  7  6
++         8  7  7  7  7  6  7  8  7  8  8  7  7  7  8  8  8
++         8  7  7  6  7  5  6  8  8  7  7  9  8  7  7  7  7
++         8  8  6  7  8  7  6  9 10  8  7  6  7  8  7  7  7
++         8  8  7  8  7  7  6  6  6  8  9  8  8  8  0  0  0
%c M  cc GPS ccc cccc cccc cccc cccc ccccc ccccc ccccc ccccc
%c cc cc ccc ccc cccc cccc cccc cccc ccccc ccccc ccccc ccccc
%f  0.0000000  0.000000000  0.00000000000  0.000000000000000
%f  0.0000000  0.000000000  0.00000000000  0.000000000000000
%i    0    0    0    0      0      0      0      0         0
%i    0    0    0    0      0      0      0      0         0
/* INFORMATION & ANALYSIS CENTER (IAC)      ULTRA-RAPID DATA
/* S/V CLOCKS ARE ALIGNED TO GNSS TIME                      
/* G:C1WC2W R:C1PC2P E:C1XC5X C:C2IC6I J:C1CC2S             
/* PCV:IGS14_2148 OL/AL:FES2004  NONE     YN ORB:CoN CLK:CoN
*  2021 05 13 13 45  0.00000000
PC06 -15978.403852  38003.755517  10482.181540    380.153335
PC07 -11839.009233  23931.273285 -32336.754771   -217.935146
PC08 -24627.019949  23806.659255  24445.618443   -890.308230
PC09  -7245.863110  41457.200549  -4869.169842    526.879329
PC10   4236.896297  31040.767103 -27824.033841    -43.344019
PC11  -5709.362342 -20231.607429 -18315.246126    338.522289
PC12   6864.680786 -26885.486632  -3015.233235    885.806023
PC13 -10964.569177  25647.310527  31640.332846    259.073039
PC14 -16622.262704 -22109.418617  -3902.972665    719.445542
PC16 -13256.173028  39512.577104   7239.622635   -835.333039
PC19  21131.852315  17350.087136  -5490.730956    833.310440
PC20  10613.497213  23164.214930  11362.196273   -918.893573
PC21   6773.542163 -15416.642943 -22233.438434   -941.660833
PC22  19687.290498   1262.709419 -19714.656724   -956.927054
PC23 -27395.240724   5276.794671    702.971361   -906.326839
PC24  -1863.787736 -16164.452721  22664.657284   -848.855945
PC25 -21597.680727  -6797.361290  16295.670840   -917.710979
PC26  16715.414026 -15660.270190  15955.302388    907.675229
PC27 -12599.308264  24153.677334  -6121.577334    530.969542
PC28 -17464.196725   8582.987476 -20001.512345    -74.949348
PC29  12550.731238  11513.727929  22096.242625    391.699344
PC30    244.893762  25715.564788  10858.320659    466.819479
PC32  -6725.578506  15451.252151  22261.905760   -934.136222
PC33 -21249.169524 -17265.634440   5469.870828   -938.656399
PC34   -760.493893 -25405.551403 -11502.953962   -674.442121
PC35  17206.616041  -8770.716772  20121.051930   -282.837569
PC36  21184.922159   7503.887260 -16517.003198   -726.991489
PC37 -17831.727971  14993.775027 -15333.692250   -894.030817
PC38 -19438.574850  26335.174941  26548.616588    148.453549
PC39  -8896.368908  41010.522418   4849.622828     31.050999
PC40    -15.884782  27363.499131 -32009.658301    160.540671
PC41 -19878.230735  -1454.241593  19585.433095   -944.589903
PC42 -10092.826692 -23136.175373 -11872.680177   -915.718306
PC43 -12365.822652 -12099.489638 -21900.292398   -728.333931
PC44  11883.774282 -24438.399253   6252.690616    185.772732
PC45  27378.429299  -5418.245513   -586.327581    439.021235
PC46   3061.862221  15811.432738 -22784.087680    272.917024
PE01  -1044.102313 -17108.685086  24130.391924  -1106.897041
PE02   1202.382022  17137.065670 -24110.302269    218.777872
PE03   2050.749569  28515.260914   7647.237605   -430.453062
PE04 -14158.712684 -23739.930115  10604.950139   -770.037260
PE05 -11437.919063  16614.037730  21671.153145   -281.310806
PE07  18101.706080   4830.816688 -22901.003500   -537.155597
PE08  14343.518509  23471.204803 -10906.632069   6002.796352
PE09 -17993.142458  -4606.679022  23061.480056   5669.248588
PE11 -22343.322880   5281.445083 -18705.001943   5985.317882
PE12  -9610.244062 -13223.193553 -24677.937534   5212.775189
PE13  22121.988502  -4976.778183  19022.048311    416.340823
PE14   7335.708781 -24110.676005   9123.125702  -1429.571228
PE15   9602.675027  13136.553414  24730.538069    814.505957
PE18 -16159.719996  16523.286726 -19405.008788  -1564.752232
PE19   -485.188752 -27963.610544  -9681.808989    275.847812
PE21  19024.829090  -9321.010783  20668.964147   -664.665955
PE24 -28869.323669  -4823.332471  -4354.238375   -897.846273
PE25 -19193.733753   9203.196045 -20564.997919   -533.699618
PE26  21379.406167 -20426.984692   1316.638838   1815.572023
PE27  28861.486305   4168.421203   5102.365354    -31.487969
PE30  20855.279416  15583.975929 -14106.570948   2948.880668
PE31 -21659.119728 -15118.617095  13364.780054   -481.116819
PE33   8534.317771 -23472.646883 -15874.001780   -468.551416
PE36 -21599.844278  20139.147706  -2115.850286   -206.519356
PG01   8311.262809 -18853.677541 -16815.881048    690.280591
PG02 -22115.480498  14086.533497  -3733.295584   -603.866604
PG03  -1695.325329 -16664.109167 -20721.325173   -162.832955
PG04   1434.913157 -26273.316887  -3381.681651   -196.097127
PG05 -14612.027529   9069.806143  20137.675833    -41.815458
PG06 -22081.535462   3310.516936 -14373.504742     15.380446
PG07  -6491.835370 -14273.708359  21753.792316    149.678853
PG08   6655.332473 -22345.373773  12419.130071    -21.064496
PG09  -7185.953073 -24535.951289   7098.675030   -345.214400
PG10  23966.539630  11784.334194    213.778493   -121.121568
PG12  -1720.571157  15890.086595 -21492.223688    -40.526820
PG13 -12889.605020  15259.649519  17306.344486    131.523552
PG14 -23216.452519 -12931.704160    364.110273     86.349721
PG15  -4389.881519  23186.864156  11469.382917   -149.685498
PG16  18594.557014  -3505.839176  18578.797060   -324.526378
PG17 -12691.860847 -13167.738575 -18833.298822    441.727108
PG18   9438.438179  11791.479157  21840.243402    350.476959
PG19 -14687.667251  -3703.438926 -22112.565911     -0.519856
PG20  -2796.482285  15529.275950  21331.835067    522.231392
PG21  14736.726650 -19568.032199  -8917.359807    117.834373
PG22   8586.873167 -13398.339701 -21054.011519   -615.317093
PG23  18044.098741  16353.110553  10640.274166    107.022204
PG24 -11691.217396  20452.886226 -12116.885017     75.098086
PG25  11873.186771  18078.274831 -15858.174590    136.420041
PG26  24075.818859   1471.199957  11354.971104     84.769410
PG27  12416.098367 -12496.593173  19581.212834   -129.343666
PG28 -23630.396932 -10730.139660  -4621.807204    571.997874
PG29   4746.095064  25059.327057   7275.811620   -346.345796
PG30 -18215.676036  -4822.962202  18865.568320   -425.514402
PG31  23528.769865  -5142.422356 -11785.202153   -117.051980
PG32  14639.243578  10217.305558 -19606.928568     21.281809
PJ01 -25992.142334  21978.501628  29907.838455   -378.300960
PJ02 -30113.539798  16123.680179 -20183.217322      0.084052
PJ03 -23459.263264  31942.051130  -9841.323252     -5.360248
PR01   7961.772125  -8003.376579 -22867.417291     79.382239
PR02  -6559.399717 -21534.163053 -11894.709419    478.444773
PR03 -15216.067240 -19737.628260   5365.868061     35.861795
PR04 -15019.350462  -6997.782409  19425.025531     86.601515
PR05  -6547.757296   9688.736302  22688.400085     71.648172
PR07  15337.317963  19536.678319  -5861.096807    -42.486282
PR08  15082.290667   6941.908393 -19310.811548    -58.982065
PR09   -474.794365  11278.589910 -22860.221481     -7.351511
PR11  25450.411482   -493.141751  -1525.497008     -3.925962
PR12  18520.717053  -8087.927238  15600.006464    228.570708
PR13   1136.138741 -11018.684333  22959.934516    -54.671937
PR14 -17674.285684  -7471.293423  16825.740822     64.209501
PR15 -25485.297426    324.262532   1075.111051    103.857202
PR16 -17386.534634   8960.443545 -16321.590936    -15.038974
PR17  -4827.981299 -12022.077214 -21975.836751    423.702964
PR18 -13381.176259   4538.460920 -21241.948267     76.376404
PR19 -15441.187408  17684.432018  -9981.304940   -143.544294
PR20  -7852.485687  22160.739734   9957.250622    -49.026176
PR21   5518.557078  10893.784239  22386.926074   -208.639568
PR22  13644.716948  -5401.360795  20815.634156   -112.508850
PR24   6886.857034 -22200.257096 -10504.464528     42.483278
EOF
